[{"OBJECT_NAME":"JILIN-1 08","OBJECT_ID":"2018-008F","EPOCH":"2026-03-09T22:37:53.184288","MEAN_MOTION":15.32205976,"ECCENTRICITY":0.00081321,"INCLINATION":97.1902,"RA_OF_ASC_NODE":90.9961,"ARG_OF_PERICENTER":76.0646,"MEAN_ANOMALY":284.15,"EPHEMERIS_TYPE":0,"CLASSIFICATION_TYPE":"U","NORAD_CAT_ID":43160,"ELEMENT_SET_NO":999,"REV_AT_EPOCH":44974,"BSTAR":0.00036689195,"MEAN_MOTION_DOT":0.00011349,"MEAN_MOTION_DDOT":0},{"OBJECT_NAME":"STARLINK-31335","OBJECT_ID":"2024-031E","EPOCH":"2026-03-09T21:35:06.467424","MEAN_MOTION":15.30192475,"ECCENTRICITY":0.00012727,"INCLINATION":53.1595,"RA_OF_ASC_NODE":293.0019,"ARG_OF_PERICENTER":72.9439,"MEAN_ANOMALY":287.1701,"EPHEMERIS_TYPE":0,"CLASSIFICATION_TYPE":"U","NORAD_CAT_ID":58969,"ELEMENT_SET_NO":999,"REV_AT_EPOCH":11660,"BSTAR":3.8661629e-5,"MEAN_MOTION_DOT":7.86e-6,"MEAN_MOTION_DDOT":0}]
